OPTICUBE 04             
1 41851U 16067D   26068.51005515  .00003771  00000+0  24102-3 0  9992
2 41851  98.0811 275.5525 0017089  94.6311 265.6869 15.09188144510131
STARLINK-4539           
1 53423U 22097AM  26068.34624998  .00001902  00000+0  13750-3 0  9994
2 53423  53.2163 115.6767 0001782  53.3894 306.7262 15.08855096198575
